#cP2018  7  7  0  0  0.00000000     192 ORBIT IGS14 HLM  IGS
## 2008 518400.00000000   900.00000000 58306 0.0000000000000
+   31   G01G02G03G05G06G07G08G09G10G11G12G13G14G15G16G17G18
+        G19G20G21G22G23G24G25G26G27G28G29G30G31G32  0  0  0
+          0  0  0  0  0  0  0  0  0  0  0  0  0  0  0  0  0
+          0  0  0  0  0  0  0  0  0  0  0  0  0  0  0  0  0
+          0  0  0  0  0  0  0  0  0  0  0  0  0  0  0  0  0
++         4  3  3  3  3  3  3  2  3  3  3  3  3  3  4  3  4
++         3  3  4  3  3  4  3  4  3  3  3  3  3  3  0  0  0
++         0  0  0  0  0  0  0  0  0  0  0  0  0  0  0  0  0
++         0  0  0  0  0  0  0  0  0  0  0  0  0  0  0  0  0
++         0  0  0  0  0  0  0  0  0  0  0  0  0  0  0  0  0
%c G  cc GPS ccc cccc cccc cccc cccc ccccc ccccc ccccc ccccc
%c cc cc ccc ccc cccc cccc cccc cccc ccccc ccccc ccccc ccccc
%f  1.2500000  1.025000000  0.00000000000  0.000000000000000
%f  0.0000000  0.000000000  0.00000000000  0.000000000000000
%i    0    0    0    0      0      0      0      0         0
%i    0    0    0    0      0      0      0      0         0
/* ULTRA ORBIT COMBINATION 20090_00 (58307.000) FROM:       
/* cou emu esu gfu ngu siu usu whu                          
/* REFERENCED TO emu CLOCK AND TO WEIGHTED MEAN POLE:       
/* PCV:IGS14_2006 OL/AL:FES2004  NONE     Y  ORB:CMB CLK:CMB
*  2018  7  8  6 45  0.00000000
PG01 -18630.877846  -7432.224145  17406.820278    -63.637016  5 14 12 183  P   P
PG02  14634.207943  22301.538373   1452.773645     63.921250 12  8 13 238  P   P
PG03 -17483.586564   3859.202126  19575.393067    102.181793  6 11  5 216  P   P
PG05   7241.732758  16681.683088 -19391.456585     -4.931870  9  8  9 236  P   P
PG06   3255.300488  22538.502415  13677.426644    389.227577 10 10 12 236  P   P
PG07 -12364.632470   8806.388883 -21553.345911    162.526790 10 11  5 229  P   P
PG08 -23716.811711  -5981.684874 -10495.434585   -107.421640  6  8  8 270  P   P
PG09 -23199.685378   8304.309835  -9954.758062    514.042639  6  8  7 234  P   P
PG10  10394.185549 -24184.811783   2842.702137    188.874822  8  5  9 107  P   P
PG11 -23636.551961  -7193.008827   8957.895163   -730.995463  4  9  5 236  P   P
PG12  15489.349305   1653.207949  21287.490932    322.403023  5 11  4 235  P   P
PG13  17104.374903  12506.899975 -16123.840735    -92.685489 11 11 11 248  P   P
PG14  -2503.329855 -15371.101315  21831.102579    -97.589442 11 11  6 203  P   P
PG15  25271.899535   3199.004589  -8407.536105   -351.189264  7 10  9 207  P   P
PG16  -4401.810534 -17308.262244 -19671.500211     18.598893 14 11  8 121  P   P
PG17  -8379.722884  14082.332834  21261.999705    -80.473247 10 11  3 227  P   P
PG18 -19255.414850 -15018.627010  10190.747356     31.002166  9 11 13 290  P   P
PG19   1049.600981  14693.846425  21796.116960   -422.189637  8  9  6 250  P   P
PG20  14282.623016 -21092.816201  -7475.269275    512.002199  7  6 11 238  P   P
PG21   8778.305035 -13264.939467 -20482.130573   -370.613033  9 10  3 262  P   P
PG22 -15298.854643  -5154.789906  21334.000430   -450.879861  5 11  7 231  P   P
PG23 -26772.499223    517.960223   1284.500445   -214.807923  4  4  9 224  P   P
PG24  19879.577609  10331.034338  14365.245957    -52.251467  9 13 12 317  P   P
PG25  17879.368260 -13334.544474  14057.348904   -612.789304  7 11 10 199  P   P
PG26   2391.026147 -23556.314856 -11909.497611    -90.754483 12  8 13 185  P   P
PG27 -14252.466632 -12202.038417 -18987.082240    362.207897 10  6  8 196  P   P
PG28 -13576.280373  22844.490924   1386.127633    729.613234  7  7  9 238  P   P
PG29  24643.197038  -5112.811603  -8499.212562    418.706187  6 10 10 202  P   P
PG30  -5089.692618  18280.370719 -18503.542456     53.233630 10  9  6 243  P   P
PG31  -3953.075438 -23155.143844  12013.829405    109.233737 12 10 12 212  P   P
PG32   8009.496934 -14863.515620  20524.193040   -479.556054 10  7  4 232  P   P
*  2018  7  8  7  0  0.00000000
PG01 -19575.886147  -9083.534510  15527.317870    -63.640341  6 14 13 179  P   P
PG02  14268.168287  22249.460101   4251.244210     63.911558 12  7 13 237  P   P
PG03 -16564.756810   1740.039714  20652.508831    102.187402  6 11  3 215  P   P
PG05   6215.446636  18552.778969 -17969.732501     -4.931321  9  8  9 236  P   P
PG06   2170.251059  21243.626650  15806.413107    389.224348 10 10 11 235  P   P
PG07 -13748.734011   6708.853622 -21511.591214    162.521034 11 11  3 230  P   P
PG08 -22398.042229  -6280.871575 -12913.917228   -107.422734  7  8  8 271  P   P
PG09 -24205.573430   8134.004009  -7354.356612    514.042170  6  8  8 233  P   P
PG10  10702.335643 -24211.407839    -17.592183    188.874810  8  5  9 135  P   P
PG11 -24241.755516  -8037.744724   6402.377934   -730.994068  4  9  6 235  P   P
PG12  14293.818891   3855.245050  21843.026451    322.400802  5 11  5 233  P   P
PG13  15171.642258  12559.891030 -17927.618877    -92.685110 11 11 11 248  P   P
PG14    -62.705589 -15363.164484  21965.933688    -97.589510 11 11  6 205  P   P
PG15  24258.373144   3641.569248 -10875.582549   -351.188574  8 10  9 207  P   P
PG16  -3217.057824 -19095.436353 -18140.911856     18.597579 14 10  9 130  P   P
PG17 -10671.513432  14062.890463  20191.263347    -80.469739 10 11  4 228  P   P
PG18 -19689.813360 -16034.579956   7620.449889     31.006421 10 11 14 289  P   P
PG19  -1505.154382  14636.864411  21821.605311   -422.186794  8 10  5 251  P   P
PG20  14251.320960 -20049.014795 -10022.381277    512.002831  7  6 10 239  P   P
PG21  10350.361979 -11265.813098 -20921.023266   -370.608191  9 10  4 261  P   P
PG22 -14382.534065  -7376.111452  21320.723045   -450.890800  5 11  7 229  P   P
PG23 -26526.094245    227.053097   4058.409990   -214.807409  3  3  8 224  P   P
PG24  20607.988768  11695.342887  12166.792303    -52.251760  9 13 12 316  P   P
PG25  17262.858075 -11672.877456  16145.642554   -612.794575  8 11  9 204  P   P
PG26   3125.590317 -24566.138307  -9428.114769    -90.743496 12  7 13 180  P   P
PG27 -12045.679032 -12450.738652 -20291.306946    362.206001 10  6  8 194  P   P
PG28 -13693.737201  22686.764605  -1515.800133    729.615813  6  6  9 237  P   P
PG29  25455.584592  -4942.926635  -5752.541378    418.699992  6 11 10 201  P   P
PG30  -6356.132023  16471.994353 -19780.837795     53.229447 10 10  5 243  P   P
PG31  -2952.329715 -21995.687170  14308.135330    109.231320 13 10 12 208  P   P
PG32  10291.011467 -14938.338302  19412.682482   -479.549168 10  7  5 232  P   P
*  2018  7  8  7 15  0.00000000
PG01 -20470.233789 -10497.005308  13381.364194    -63.643662  6 14 14 178  P   P
PG02  13702.218064  21979.921372   6978.304763     63.901868 12  6 13 236  P   P
PG03 -15718.567828   -517.716927  21373.123973    102.193012  5 11  3 213  P   P
PG05   5347.279053  20308.741876 -16238.989384     -4.930769 10  9  9 236  P   P
PG06    879.202043  19830.588871  17663.620980    389.221120 11 10 11 234  P   P
PG07 -15219.955663   4710.071751 -21092.791003    162.515276 10 11  5 231  P   P
PG08 -20838.155976  -6688.603688 -15111.293272   -107.423845  8  7  8 271  P   P
PG09 -24920.959527   7971.864226  -4627.571177    514.041701  5  8  8 232  P   P
PG10  10885.467501 -23953.013766  -2877.577007    188.874795  8  5  9 154  P   P
PG11 -24622.179127  -8710.151485   3733.710211   -730.992678  4 10  7 234  P   P
PG12  13204.635226   6156.313582  22015.312649    322.398581  5 12  6 232  P   P
PG13  13058.804059  12718.179836 -19425.419335    -92.684734 11 11 10 249  P   P
PG14   2371.251740 -15484.207932  21733.057706    -97.589577 11 11  7 206  P   P
PG15  23008.770227   4187.685197 -13162.091828   -351.187887  8 10  8 208  P   P
PG16  -2218.645883 -20778.269364 -16297.265256     18.596266 14 10 10 141  P   P
PG17 -12825.464143  14160.829752  18783.085336    -80.466235 10 11  5 229  P   P
PG18 -19984.418023 -16793.809064   4918.229491     31.010683 10 11 14 289  P   P
PG19  -4038.158149  14718.099533  21461.233071   -422.183950  8 10  5 251  P   P
PG20  14190.431583 -18739.966002 -12397.036699    512.003462  7  6 10 240  P   P
PG21  12034.326007  -9320.323146 -20972.588832   -370.603348  9 10  6 261  P   P
PG22 -13579.004818  -9617.876561  20948.521714   -450.901740  5 11  8 227  P   P
PG23 -25992.391251   -117.959033   6764.611711   -214.806894  2  5  8 225  P   P
PG24  21236.642214  12820.990802   9760.718556    -52.252046  9 13 13 315  P   P
PG25  16650.376200  -9774.965416  17949.784264   -612.799845  8 12  9 209  P   P
PG26   3702.028888 -25341.515937  -6783.332763    -90.732511 11  8 13 182  P   P
PG27  -9727.841995 -12838.754532 -21251.064548    362.204099 10  5  7 193  P   P
PG28 -13673.262424  22241.295971  -4391.521636    729.618391  6  5  9 236  P   P
PG29  25959.728600  -4795.666775  -2906.876183    418.693797  5 11 10 200  P   P
PG30  -7780.027405  14626.030670 -20715.993328     53.225259 10 10  3 243  P   P
PG31  -1750.475765 -20689.926973  16351.878398    109.228902 13 10 11 205  P   P
PG32  12423.440055 -15110.413988  17967.458572   -479.542283 10  6  6 231  P   P
EOF
